{
  "type": "FeatureCollection",
  "features": [
    {
      "type": "Feature",
      "properties": {
        "norad_id": 41772,
        "name": "SKYSAT-C5",
        "group": "resource",
        "lat": -66.83040817075306,
        "lon": -162.39273753759684,
        "alt_km": 469.03874869557694,
        "timestamp": "2025-12-16T21:38:56.827146+00:00",
        "meta_object_name": "SKYSAT-C5",
        "meta_object_id": "2016-058C",
        "meta_epoch": "2025-12-16T03:20:59.438976",
        "meta_mean_motion": 15.33938738,
        "meta_eccentricity": 0.00037842,
        "meta_inclination": 97.0765,
        "meta_ra_of_asc_node": 33.7507,
        "meta_arg_of_pericenter": 279.064,
        "meta_mean_anomaly": 81.0175,
        "meta_ephemeris_type": 0,
        "meta_classification_type": "U",
        "meta_norad_cat_id": 41772,
        "meta_element_set_no": 999,
        "meta_rev_at_epoch": 51568,
        "meta_bstar": 0.00027996502,
        "meta_mean_motion_dot": 9.12e-05,
        "meta_mean_motion_ddot": 0,
        "tle_line1": "1 41772U 16058C   25350.13957684  .00009120  00000+0  27997-3 0  9997",
        "tle_line2": "2 41772  97.0765  33.7507 0003784 279.0640  81.0175 15.33938738515689"
      },
      "geometry": {
        "type": "Point",
        "coordinates": [
          -162.39273753759684,
          -66.83040817075306
        ]
      }
    },
    {
      "type": "Feature",
      "properties": {
        "norad_id": 41773,
        "name": "SKYSAT-C2",
        "group": "resource",
        "lat": -54.98357265150837,
        "lon": 25.40683417632534,
        "alt_km": 460.47749370520796,
        "timestamp": "2025-12-16T21:38:56.827156+00:00",
        "meta_object_name": "SKYSAT-C2",
        "meta_object_id": "2016-058D",
        "meta_epoch": "2025-12-16T01:34:57.592704",
        "meta_mean_motion": 15.37349108,
        "meta_eccentricity": 0.00038859,
        "meta_inclination": 97.0363,
        "meta_ra_of_asc_node": 14.4522,
        "meta_arg_of_pericenter": 26.1288,
        "meta_mean_anomaly": 334.0153,
        "meta_ephemeris_type": 0,
        "meta_classification_type": "U",
        "meta_norad_cat_id": 41773,
        "meta_element_set_no": 999,
        "meta_rev_at_epoch": 51687,
        "meta_bstar": 0.00024218094,
        "meta_mean_motion_dot": 8.79e-05,
        "meta_mean_motion_ddot": 0,
        "tle_line1": "1 41773U 16058D   25350.06594436  .00008790  00000+0  24218-3 0  9997",
        "tle_line2": "2 41773  97.0363  14.4522 0003885  26.1288 334.0153 15.37349108516878"
      },
      "geometry": {
        "type": "Point",
        "coordinates": [
          25.40683417632534,
          -54.98357265150837
        ]
      }
    },
    {
      "type": "Feature",
      "properties": {
        "norad_id": 41774,
        "name": "SKYSAT-C3",
        "group": "resource",
        "lat": -59.46593526221528,
        "lon": -167.4455833075761,
        "alt_km": 440.7897514736296,
        "timestamp": "2025-12-16T21:38:56.827166+00:00",
        "meta_object_name": "SKYSAT-C3",
        "meta_object_id": "2016-058E",
        "meta_epoch": "2025-12-16T01:57:14.095296",
        "meta_mean_motion": 15.4451798,
        "meta_eccentricity": 0.00017972,
        "meta_inclination": 96.9302,
        "meta_ra_of_asc_node": 23.6723,
        "meta_arg_of_pericenter": 107.5702,
        "meta_mean_anomaly": 252.5744,
        "meta_ephemeris_type": 0,
        "meta_classification_type": "U",
        "meta_norad_cat_id": 41774,
        "meta_element_set_no": 999,
        "meta_rev_at_epoch": 51777,
        "meta_bstar": 0.00030905894,
        "meta_mean_motion_dot": 0.00014261,
        "meta_mean_motion_ddot": 0,
        "tle_line1": "1 41774U 16058E   25350.08141314  .00014261  00000+0  30906-3 0  9994",
        "tle_line2": "2 41774  96.9302  23.6723 0001797 107.5702 252.5744 15.44517980517773"
      },
      "geometry": {
        "type": "Point",
        "coordinates": [
          -167.4455833075761,
          -59.46593526221528
        ]
      }
    },
    {
      "type": "Feature",
      "properties": {
        "norad_id": 41785,
        "name": "ALSAT 1B",
        "group": "resource",
        "lat": 80.384006810945,
        "lon": -123.66883859302048,
        "alt_km": 639.4766851182394,
        "timestamp": "2025-12-16T21:38:56.827176+00:00",
        "meta_object_name": "ALSAT 1B",
        "meta_object_id": "2016-059C",
        "meta_epoch": "2025-12-16T08:09:58.164192",
        "meta_mean_motion": 14.72080124,
        "meta_eccentricity": 0.00107737,
        "meta_inclination": 97.7818,
        "meta_ra_of_asc_node": 1.9753,
        "meta_arg_of_pericenter": 93.0198,
        "meta_mean_anomaly": 267.2243,
        "meta_ephemeris_type": 0,
        "meta_classification_type": "U",
        "meta_norad_cat_id": 41785,
        "meta_element_set_no": 999,
        "meta_rev_at_epoch": 49367,
        "meta_bstar": 8.8859802e-05,
        "meta_mean_motion_dot": 5.12e-06,
        "meta_mean_motion_ddot": 0,
        "tle_line1": "1 41785U 16059C   25350.34025653  .00000512  00000+0  88860-4 0  9990",
        "tle_line2": "2 41785  97.7818   1.9753 0010773  93.0198 267.2243 14.72080124493674"
      },
      "geometry": {
        "type": "Point",
        "coordinates": [
          -123.66883859302048,
          80.384006810945
        ]
      }
    },
    {
      "type": "Feature",
      "properties": {
        "norad_id": 41787,
        "name": "PATHFINDER 1",
        "group": "resource",
        "lat": 74.57468974256756,
        "lon": -156.67146452194544,
        "alt_km": 645.1443410276233,
        "timestamp": "2025-12-16T21:38:56.827187+00:00",
        "meta_object_name": "PATHFINDER 1",
        "meta_object_id": "2016-059E",
        "meta_epoch": "2025-12-16T06:27:10.171008",
        "meta_mean_motion": 14.67327463,
        "meta_eccentricity": 0.00299728,
        "meta_inclination": 97.8137,
        "meta_ra_of_asc_node": 352.8787,
        "meta_arg_of_pericenter": 70.4886,
        "meta_mean_anomaly": 289.9552,
        "meta_ephemeris_type": 0,
        "meta_classification_type": "U",
        "meta_norad_cat_id": 41787,
        "meta_element_set_no": 999,
        "meta_rev_at_epoch": 49288,
        "meta_bstar": 0.00014556755,
        "meta_mean_motion_dot": 7.81e-06,
        "meta_mean_motion_ddot": 0,
        "tle_line1": "1 41787U 16059E   25350.26886772  .00000781  00000+0  14557-3 0  9999",
        "tle_line2": "2 41787  97.8137 352.8787 0029972  70.4886 289.9552 14.67327463492880"
      },
      "geometry": {
        "type": "Point",
        "coordinates": [
          -156.67146452194544,
          74.57468974256756
        ]
      }
    },
    {
      "type": "Feature",
      "properties": {
        "norad_id": 41790,
        "name": "SCATSAT 1",
        "group": "resource",
        "lat": -81.84838455223534,
        "lon": 137.92319144409782,
        "alt_km": 675.8139079136627,
        "timestamp": "2025-12-16T21:38:56.827197+00:00",
        "meta_object_name": "SCATSAT 1",
        "meta_object_id": "2016-059H",
        "meta_epoch": "2025-12-16T04:11:53.933856",
        "meta_mean_motion": 14.78948032,
        "meta_eccentricity": 0.00563658,
        "meta_inclination": 98.1461,
        "meta_ra_of_asc_node": 46.8881,
        "meta_arg_of_pericenter": 117.145,
        "meta_mean_anomaly": 243.5524,
        "meta_ephemeris_type": 0,
        "meta_classification_type": "U",
        "meta_norad_cat_id": 41790,
        "meta_element_set_no": 999,
        "meta_rev_at_epoch": 7453,
        "meta_bstar": 0.00020042299,
        "meta_mean_motion_dot": 1.462e-05,
        "meta_mean_motion_ddot": 0,
        "tle_line1": "1 41790U 16059H   25350.17492979  .00001462  00000+0  20042-3 0  9998",
        "tle_line2": "2 41790  98.1461  46.8881 0056365 117.1450 243.5524 14.78948032 74531"
      },
      "geometry": {
        "type": "Point",
        "coordinates": [
          137.92319144409782,
          -81.84838455223534
        ]
      }
    },
    {
      "type": "Feature",
      "properties": {
        "norad_id": 41875,
        "name": "GOKTURK 1A",
        "group": "resource",
        "lat": 66.15213625239993,
        "lon": 82.11052084051106,
        "alt_km": 677.0052563865856,
        "timestamp": "2025-12-16T21:38:56.827207+00:00",
        "meta_object_name": "GOKTURK 1A",
        "meta_object_id": "2016-073A",
        "meta_epoch": "2025-12-16T08:00:12.607200",
        "meta_mean_motion": 14.62783908,
        "meta_eccentricity": 0.0001268,
        "meta_inclination": 98.1429,
        "meta_ra_of_asc_node": 242.6508,
        "meta_arg_of_pericenter": 79.5089,
        "meta_mean_anomaly": 280.6255,
        "meta_ephemeris_type": 0,
        "meta_classification_type": "U",
        "meta_norad_cat_id": 41875,
        "meta_element_set_no": 999,
        "meta_rev_at_epoch": 48209,
        "meta_bstar": 8.0923828e-05,
        "meta_mean_motion_dot": 3.66e-06,
        "meta_mean_motion_ddot": 0,
        "tle_line1": "1 41875U 16073A   25350.33347925  .00000366  00000+0  80924-4 0  9994",
        "tle_line2": "2 41875  98.1429 242.6508 0001268  79.5089 280.6255 14.62783908482091"
      },
      "geometry": {
        "type": "Point",
        "coordinates": [
          82.11052084051106,
          66.15213625239993
        ]
      }
    }
  ]
}